{"type": "FeatureCollection", "features": [{"type": "Feature", "geometry": {"type": "MultiPolygon", "coordinates": [[[[0.083914017, 51.542927351], [0.084093104, 51.542834171], [0.084245524, 51.542754871], [0.084359459, 51.54269559], [0.084373264, 51.542688411], [0.084535149, 51.542604177], [0.084554167, 51.542594289], [0.084650956, 51.5425439], [0.084655295, 51.542541665], [0.084746563, 51.54249418], [0.084782708, 51.542362693], [0.084820251, 51.54227789], [0.084820062, 51.542269656], [0.084819334, 51.542235739], [0.08467902, 51.542118567], [0.084589897, 51.542044153], [0.084593455, 51.542026077], [0.084595178, 51.542017377], [0.084399373, 51.541879077], [0.084371073, 51.541872035], [0.084185846, 51.541826019], [0.084069016, 51.541899533], [0.084065407, 51.541901351], [0.08403535, 51.541912964], [0.084025047, 51.541916942], [0.083960911, 51.541949214], [0.083949318, 51.541955104], [0.083943922, 51.541957888], [0.083932299, 51.541963913], [0.083913583, 51.541976435], [0.083871719, 51.541995259], [0.083852709, 51.542006262], [0.083833137, 51.54201759], [0.0837975, 51.542033659], [0.083764425, 51.542052142], [0.083739601, 51.542063397], [0.08370049, 51.542088678], [0.083606995, 51.542124034], [0.083593185, 51.542130781], [0.083587044, 51.542134326], [0.083569869, 51.542142396], [0.083560622, 51.542145955], [0.083492765, 51.542179984], [0.083481113, 51.542186944], [0.083452026, 51.54220434], [0.083447027, 51.542206048], [0.083441844, 51.542207812], [0.083374079, 51.54224023], [0.083368574, 51.542243628], [0.083357474, 51.542249086], [0.083324952, 51.542261696], [0.08331498, 51.542266612], [0.083257069, 51.542295167], [0.083254001, 51.542296984], [0.083188357, 51.542329094], [0.083183617, 51.542331408], [0.083164219, 51.542343713], [0.083152121, 51.542348326], [0.083131508, 51.542358179], [0.083080361, 51.542379168], [0.083063919, 51.542388291], [0.083026075, 51.542404358], [0.083022384, 51.542406294], [0.082962313, 51.542432707], [0.082928678, 51.542450795], [0.082922556, 51.54245331], [0.082888674, 51.54247026], [0.082881865, 51.542473672], [0.082869886, 51.542477896], [0.082861937, 51.54248069], [0.082821711, 51.542499246], [0.08281477, 51.54250168], [0.082810633, 51.542503615], [0.082778398, 51.542518719], [0.082755314, 51.542532421], [0.082738872, 51.542542173], [0.082729759, 51.542547586], [0.082706568, 51.542564617], [0.082688995, 51.542573931], [0.082680392, 51.54257849], [0.082651759, 51.542590068], [0.082643496, 51.542594486], [0.082640508, 51.542597282], [0.082625254, 51.542611582], [0.082532554, 51.542674189], [0.08249623, 51.542693557], [0.082458822, 51.542708439], [0.082434622, 51.542716017], [0.082388817, 51.542726102], [0.082382878, 51.542727413], [0.082374408, 51.542730809], [0.082368191, 51.542733303], [0.0823464, 51.54274404], [0.082339117, 51.54274309], [0.0822663, 51.542733601], [0.082231796, 51.542724276], [0.082167285, 51.542706842], [0.082148171, 51.542701678], [0.08207864, 51.542667175], [0.081966626, 51.542564811], [0.081969246, 51.542556492], [0.081973142, 51.542544201], [0.081967253, 51.542540619], [0.081810486, 51.542445146], [0.08179514, 51.542429627], [0.081767851, 51.542402072], [0.08176522, 51.542399412], [0.081745717, 51.542357286], [0.081742677, 51.542344696], [0.081734547, 51.542310982], [0.081733845, 51.542301912], [0.0817331, 51.542292222], [0.081734065, 51.54228399], [0.081725981, 51.542282241], [0.081635813, 51.542262879], [0.081617621, 51.542256727], [0.081522068, 51.542224133], [0.081381934, 51.542095991], [0.08136097, 51.542076822], [0.081099983, 51.542204842], [0.081071037, 51.542219042], [0.081046338, 51.542231153], [0.081041909, 51.542233327], [0.08106194, 51.542248484], [0.081040136, 51.542255157], [0.081022052, 51.542243176], [0.080829962, 51.542115901], [0.080764983, 51.542071757], [0.080751216, 51.542062397], [0.080510441, 51.5418988], [0.080244354, 51.541718008], [0.08023314, 51.541710392], [0.080253181, 51.54169876], [0.080115155, 51.541608672], [0.080008983, 51.541539377], [0.079957569, 51.541505811], [0.079703221, 51.541339809], [0.079673582, 51.541322349], [0.079648438, 51.541341473], [0.079468858, 51.54147801], [0.07943804, 51.541501434], [0.079418875, 51.541516009], [0.079349588, 51.541568694], [0.07926763, 51.541631], [0.079245872, 51.541647537], [0.079187429, 51.541691972], [0.079136554, 51.541730652], [0.079115492, 51.541746655], [0.079069523, 51.541781606], [0.079032155, 51.54181002], [0.079021241, 51.541818316], [0.07898022, 51.541849519], [0.07894136, 51.541879056], [0.078934795, 51.541884047], [0.078931505, 51.541886542], [0.078918556, 51.541896385], [0.078891801, 51.541916724], [0.078882999, 51.541923418], [0.078879974, 51.541925719], [0.078813041, 51.5419766], [0.078800218, 51.541986359], [0.078792384, 51.541992316], [0.078746847, 51.542026945], [0.078739084, 51.542032847], [0.078702369, 51.542060763], [0.078698369, 51.542063802], [0.07869494, 51.542066408], [0.078649681, 51.542100806], [0.078635631, 51.542111487], [0.078625769, 51.542118986], [0.078558926, 51.542169806], [0.07855625, 51.542171841], [0.078552431, 51.542174741], [0.0785072, 51.542209131], [0.078477538, 51.542231679], [0.078465272, 51.542241006], [0.07845953, 51.54224538], [0.0784435, 51.542257561], [0.078431666, 51.542266566], [0.078411399, 51.542281961], [0.078404262, 51.542287393], [0.07839601, 51.542293663], [0.078364593, 51.542317556], [0.078335335, 51.542339801], [0.078330261, 51.542343649], [0.078319222, 51.542352037], [0.078278925, 51.542382679], [0.078240774, 51.542411682], [0.078235547, 51.54241566], [0.078188559, 51.542451384], [0.078165086, 51.542469228], [0.078107449, 51.542513045], [0.078098904, 51.542519536], [0.078051735, 51.542555399], [0.07796799, 51.542619076], [0.077955431, 51.542628615], [0.077931526, 51.542646799], [0.077917475, 51.54265747], [0.077877136, 51.54268814], [0.077835667, 51.542719666], [0.077829576, 51.542724297], [0.077813755, 51.542736321], [0.077740952, 51.542791675], [0.07781968, 51.542889174], [0.07793439, 51.542941854], [0.078025062, 51.542965787], [0.078038228, 51.542969259], [0.078053074, 51.542973177], [0.078059014, 51.542972811], [0.078100765, 51.542970273], [0.078159502, 51.543010725], [0.07816979, 51.543017809], [0.078315308, 51.543080815], [0.078313008, 51.543104408], [0.078312086, 51.543113911], [0.078310544, 51.543129451], [0.078309844, 51.543136568], [0.078456802, 51.543236544], [0.078464453, 51.54324175], [0.078478159, 51.543247721], [0.078568624, 51.543267107], [0.07859721, 51.543273157], [0.078641628, 51.543276596], [0.078645347, 51.543281314], [0.078656935, 51.543296028], [0.078839656, 51.543450639], [0.07883733, 51.543453396], [0.078693182, 51.543542946], [0.07863771, 51.543572275], [0.078623828, 51.54357961], [0.0784401, 51.54367671], [0.078411526, 51.543691821], [0.078338066, 51.54373627], [0.078332045, 51.54373991], [0.078243104, 51.543793725], [0.078192888, 51.543830196], [0.078188646, 51.543833277], [0.078103503, 51.543895127], [0.078079962, 51.543924159], [0.077994183, 51.544029976], [0.077977129, 51.544051016], [0.077947809, 51.544088833], [0.078221403, 51.544207496], [0.078403254, 51.544304984], [0.078443155, 51.544326372], [0.07867925, 51.544421046], [0.078683951, 51.544422932], [0.078699641, 51.544429228], [0.078707589, 51.544432414], [0.07884296, 51.544462533], [0.078847637, 51.544463574], [0.078877666, 51.544470263], [0.078948396, 51.544485988], [0.078961006, 51.544488786], [0.079057359, 51.544510235], [0.079132672, 51.544526993], [0.07918441, 51.544538495], [0.079192205, 51.544540236], [0.079377764, 51.544582167], [0.079404216, 51.544587413], [0.079424455, 51.544593358], [0.079438043, 51.544597353], [0.079700075, 51.544674353], [0.079717295, 51.544679416], [0.079888856, 51.544729827], [0.079918896, 51.544738647], [0.080109717, 51.544794706], [0.080515699, 51.544584441], [0.080530326, 51.544576897], [0.080918864, 51.544376482], [0.080996144, 51.544339932], [0.081007155, 51.544334718], [0.081015894, 51.544330589], [0.081054252, 51.544312444], [0.081068285, 51.54430581], [0.081099075, 51.544291245], [0.081197785, 51.544244548], [0.081243159, 51.544223086], [0.081295351, 51.544198401], [0.081319775, 51.544186853], [0.081368268, 51.544163916], [0.081374734, 51.544160851], [0.08138528, 51.544155862], [0.081391731, 51.544152807], [0.081664989, 51.544023562], [0.08167617, 51.544018273], [0.081713045, 51.544000829], [0.081747873, 51.543984366], [0.081778083, 51.543970062], [0.081788361, 51.543965213], [0.081815156, 51.543952534], [0.081918241, 51.543903771], [0.08192458, 51.543900781], [0.082062378, 51.543835593], [0.082118835, 51.543806714], [0.082122204, 51.543804999], [0.082137847, 51.543796988], [0.082201434, 51.543764465], [0.08223048, 51.543749606], [0.082277128, 51.543725739], [0.082282342, 51.543723065], [0.082295124, 51.543716526], [0.082443185, 51.543640804], [0.082494822, 51.543614393], [0.082540764, 51.54359088], [0.082574827, 51.543573468], [0.082585072, 51.543568223], [0.082609805, 51.543555572], [0.082655283, 51.54353231], [0.082720716, 51.543498837], [0.082811065, 51.54345262], [0.082898891, 51.543410845], [0.082910607, 51.543405277], [0.082980056, 51.543372264], [0.083004871, 51.543360465], [0.083157303, 51.543287984], [0.083214075, 51.543260986], [0.083219086, 51.543258604], [0.083226088, 51.543255279], [0.083377574, 51.543183236], [0.083515819, 51.543117508], [0.08352649, 51.543112426], [0.083622107, 51.54306696], [0.083626032, 51.543065101], [0.083640768, 51.543058095], [0.083709834, 51.543025249], [0.083749666, 51.543006296], [0.083799226, 51.542982745], [0.083809643, 51.542977793], [0.083896183, 51.542936643], [0.083914017, 51.542927351]]]]}, "properties": {"source": "geography", "name": "Barking and Dagenham 016C"}}, {"type": "Feature", "geometry": {"type": "MultiPolygon", "coordinates": [[[[-0.111511569, 51.532865631], [-0.111558649, 51.532867352], [-0.111605446, 51.532870989], [-0.111651762, 51.532876526], [-0.111697399, 51.532883943], [-0.111742159, 51.532893204], [-0.111785853, 51.532904271], [-0.111828291, 51.532917098], [-0.111869296, 51.532931627], [-0.111908688, 51.532947798], [-0.111946301, 51.532965542], [-0.111981971, 51.532984782], [-0.112015548, 51.533005436], [-0.112046888, 51.533027414], [-0.112075856, 51.533050624], [-0.112102327, 51.533074967], [-0.112126189, 51.533100336], [-0.112147339, 51.533126626], [-0.112165689, 51.53315372], [-0.112181156, 51.533181506], [-0.112193678, 51.533209863], [-0.112203199, 51.533238671], [-0.112209677, 51.533267805], [-0.112213087, 51.53329714], [-0.112213415, 51.533326553], [-0.112210656, 51.533355916], [-0.112204824, 51.533385102], [-0.112195946, 51.533413989], [-0.112184055, 51.533442453], [-0.112169205, 51.533470369], [-0.112151461, 51.53349762], [-0.112130895, 51.533524089], [-0.112107599, 51.533549663], [-0.11208167, 51.533574231], [-0.112053221, 51.53359769], [-0.112022372, 51.533619937], [-0.111989255, 51.533640878], [-0.111954015, 51.533660425], [-0.1119168, 51.533678491], [-0.111877769, 51.533695001], [-0.111837092, 51.533709884], [-0.11179494, 51.533723074], [-0.111751496, 51.533734519], [-0.111706944, 51.533744165], [-0.111661476, 51.533751974], [-0.111615286, 51.533757912], [-0.111582113, 51.533760982], [-0.110815461, 51.533820578], [-0.110801921, 51.533821548], [-0.110754884, 51.533823675], [-0.110738304, 51.533823747], [-0.109698882, 51.533901784], [-0.109688334, 51.533902527], [-0.109678444, 51.533903134], [-0.109432746, 51.53391716], [-0.1093956, 51.533918678], [-0.109374382, 51.533918769], [-0.108881275, 51.533952263], [-0.108880007, 51.533952349], [-0.108231712, 51.533995656], [-0.106787933, 51.534098055], [-0.106782061, 51.534098456], [-0.106735025, 51.534100581], [-0.106687864, 51.534100783], [-0.106640784, 51.53409906], [-0.106593986, 51.534095421], [-0.106547669, 51.534089881], [-0.106502032, 51.534082463], [-0.106457272, 51.534073199], [-0.106413578, 51.53406213], [-0.10637114, 51.534049301], [-0.106330137, 51.53403477], [-0.106290746, 51.534018597], [-0.106253134, 51.534000852], [-0.106217465, 51.53398161], [-0.106183891, 51.533960955], [-0.106152553, 51.533938975], [-0.106123587, 51.533915763], [-0.106097119, 51.533891419], [-0.106073259, 51.533866049], [-0.106052113, 51.533839758], [-0.106033767, 51.533812663], [-0.106018303, 51.533784876], [-0.106005785, 51.533756518], [-0.105996268, 51.53372771], [-0.105989793, 51.533698576], [-0.105986387, 51.53366924], [-0.105986064, 51.533639828], [-0.105988827, 51.533610465], [-0.105994662, 51.533581279], [-0.106003545, 51.533552392], [-0.106015439, 51.53352393], [-0.106030293, 51.533496014], [-0.106048041, 51.533468764], [-0.10606861, 51.533442296], [-0.10609191, 51.533416724], [-0.106117841, 51.533392157], [-0.106146294, 51.5333687], [-0.106177145, 51.533346454], [-0.106210264, 51.533325514], [-0.106245507, 51.53330597], [-0.106282723, 51.533287905], [-0.106321756, 51.533271397], [-0.106362435, 51.533256516], [-0.106404588, 51.533243328], [-0.106448033, 51.533231885], [-0.106492585, 51.533222241], [-0.106538053, 51.533214433], [-0.106584244, 51.533208498], [-0.106625085, 51.53320486], [-0.108071178, 51.533102297], [-0.108075866, 51.533101974], [-0.10872586, 51.533058553], [-0.10926021, 51.533022258], [-0.109262663, 51.533022094], [-0.109309698, 51.533019968], [-0.109338255, 51.533019845], [-0.109536829, 51.53300851], [-0.110611373, 51.532927835], [-0.11062192, 51.532927092], [-0.110668956, 51.532924966], [-0.110683847, 51.532924901], [-0.111403835, 51.532868932], [-0.111417375, 51.532867961], [-0.11146441, 51.532865834], [-0.111511569, 51.532865631]]]]}, "properties": {"source": "gla", "name": "Chapel Market, Islington"}}]}